ONEWEB-0412             
1 50489U 21132W   24025.38624856 -.00000029  00000+0 -10572-3 0  9990
2 50489  87.9245 149.3418 0001915 123.9589 236.1726 13.18686612106495
ONEWEB-0413             
1 50490U 21132X   24025.39099645  .00000010  00000+0 -62277-5 0  9995
2 50490  87.9242 149.3545 0002003 114.3036 245.8306 13.18684819106437
ONEWEB-0414             
1 50491U 21132Y   24025.37676832  .00000031  00000+0  46800-4 0  9998
2 50491  87.9237 149.3415 0001548 118.8686 241.2602 13.18684834106460
ONEWEB-0417             
1 50492U 21132Z   24025.38467337  .00000019  00000+0  15717-4 0  9997
2 50492  87.9245 149.3327 0001254 105.0138 255.1133 13.18686256106447
ONEWEB-0418             
1 50493U 21132AA  24025.39811946 -.00000012  00000+0 -62852-4 0  9995
2 50493  87.9241 149.3405 0000994 106.8043 253.3199 13.18686668106501
ONEWEB-0419             
1 50494U 21132AB  24025.41154566 -.00000005  00000+0 -44500-4 0  9999
2 50494  87.9238 149.3588 0001315  96.3447 263.7835 13.18685284106425
ONEWEB-0420             
1 50495U 21132AC  24025.37835499  .00000026  00000+0  33049-4 0  9993
2 50495  87.9237 149.3735 0001921 105.0547 255.0797 13.18687920106410
ONEWEB-0421             
1 50496U 21132AD  24025.37203243  .00000105  00000+0  23235-3 0  9993
2 50496  87.9245 149.3295 0001739 123.3376 236.7923 13.18685385106455
